$$SOE
2461288.500000000, A.D. 2026-Sep-05 00:00:00.0000, 3.341457922833284E+08, -2.406894757769681E+08, -1.686846759126610E+08,
2461295.500000000, A.D. 2026-Sep-12 00:00:00.0000, 3.386490993948484E+08, -2.332710891211648E+08, -1.694790938442812E+08,
2461302.500000000, A.D. 2026-Sep-19 00:00:00.0000, 3.429655773949672E+08, -2.257240244718770E+08, -1.701799989678853E+08,
2461309.500000000, A.D. 2026-Sep-26 00:00:00.0000, 3.470924352680301E+08, -2.180521793693502E+08, -1.707868020056904E+08,
2461316.500000000, A.D. 2026-Oct-03 00:00:00.0000, 3.510268790805533E+08, -2.102594771495351E+08, -1.712989159056379E+08,
2461323.500000000, A.D. 2026-Oct-10 00:00:00.0000, 3.547661098225417E+08, -2.023498710672700E+08, -1.717157555537392E+08,
2461330.500000000, A.D. 2026-Oct-17 00:00:00.0000, 3.583073213138275E+08, -1.943273486292068E+08, -1.720367375490411E+08,
2461337.500000000, A.D. 2026-Oct-24 00:00:00.0000, 3.616476982005922E+08, -1.861959361703455E+08, -1.722612800479982E+08,
2461344.500000000, A.D. 2026-Oct-31 00:00:00.0000, 3.647844141412208E+08, -1.779597037529795E+08, -1.723888026949677E+08,
2461351.500000000, A.D. 2026-Nov-07 00:00:00.0000, 3.677146305209969E+08, -1.696227703257007E+08, -1.724187266653674E+08,
2461358.500000000, A.D. 2026-Nov-14 00:00:00.0000, 3.704354958988624E+08, -1.611893082663713E+08, -1.723504747694281E+08,
2461365.500000000, A.D. 2026-Nov-21 00:00:00.0000, 3.729441443792762E+08, -1.526635466402803E+08, -1.721834713984074E+08,
2461372.500000000, A.D. 2026-Nov-28 00:00:00.0000, 3.752376919156225E+08, -1.440497761966804E+08, -1.719171424714049E+08,
2461379.500000000, A.D. 2026-Dec-05 00:00:00.0000, 3.773132341685405E+08, -1.353523567742944E+08, -1.715509157710812E+08,
2461386.500000000, A.D. 2026-Dec-12 00:00:00.0000, 3.791678460903329E+08, -1.265757240186482E+08, -1.710842214328419E+08,
2461393.500000000, A.D. 2026-Dec-19 00:00:00.0000, 3.807985813569846E+08, -1.177243954202857E+08, -1.705164924192723E+08,
2461400.500000000, A.D. 2026-Dec-26 00:00:00.0000, 3.822024715154801E+08, -1.088029765588431E+08, -1.698471650439763E+08,
2461407.500000000, A.D. 2027-Jan-02 00:00:00.0000, 3.833765251334860E+08, -9.981616776180923E+07, -1.690756795926833E+08,
2461414.500000000, A.D. 2027-Jan-09 00:00:00.0000, 3.843177270809872E+08, -9.076877117665400E+07, -1.682014810585557E+08,
2461421.500000000, A.D. 2027-Jan-16 00:00:00.0000, 3.850230379934695E+08, -8.166569826740712E+07, -1.672240200031312E+08,
2461428.500000000, A.D. 2027-Jan-23 00:00:00.0000, 3.854893939786759E+08, -7.251197779645930E+07, -1.661427535603874E+08,
2461435.500000000, A.D. 2027-Jan-30 00:00:00.0000, 3.857137067723225E+08, -6.331276436175328E+07, -1.649571466158634E+08,
2461442.500000000, A.D. 2027-Feb-06 00:00:00.0000, 3.856928647868312E+08, -5.407334717194730E+07, -1.636666731832485E+08,
2461449.500000000, A.D. 2027-Feb-13 00:00:00.0000, 3.854237346161745E+08, -4.479915786180141E+07, -1.622708178496276E+08,
2461456.500000000, A.D. 2027-Feb-20 00:00:00.0000, 3.849031606625486E+08, -3.549577816285479E+07, -1.607690771539968E+08,
2461463.500000000, A.D. 2027-Feb-27 00:00:00.0000, 3.841279643128692E+08, -2.616895067052260E+07, -1.591609613074376E+08,
2461470.500000000, A.D. 2027-Mar-06 00:00:00.0000, 3.830949457167945E+08, -1.682459081177653E+07, -1.574459963918240E+08,
2461477.500000000, A.D. 2027-Mar-13 00:00:00.0000, 3.818008866054872E+08, -7.468797989782594E+06, -1.556237267424350E+08,
2461484.500000000, A.D. 2027-Mar-20 00:00:00.0000, 3.802425530675161E+08, 1.892133232974306E+06, -1.536937175017378E+08,
2461491.500000000, A.D. 2027-Mar-27 00:00:00.0000, 3.784166985352385E+08, 1.125170133648447E+07, -1.516555574326372E+08,
2461498.500000000, A.D. 2027-Apr-03 00:00:00.0000, 3.763200672418420E+08, 2.060318535447899E+07, -1.495088620409401E+08,
2461505.500000000, A.D. 2027-Apr-10 00:00:00.0000, 3.739493982743855E+08, 2.993963169090675E+07, -1.472532770407170E+08,
2461512.500000000, A.D. 2027-Apr-17 00:00:00.0000, 3.713014303168078E+08, 3.925384020074703E+07, -1.448884821988534E+08,
2461519.500000000, A.D. 2027-Apr-24 00:00:00.0000, 3.683729072428125E+08, 4.853834944734803E+07, -1.424141956077984E+08,
2461526.500000000, A.D. 2027-May-01 00:00:00.0000, 3.651605849480655E+08, 5.778542113925707E+07, -1.398301784517871E+08,
2461533.500000000, A.D. 2027-May-08 00:00:00.0000, 3.616612398273263E+08, 6.698702447231179E+07, -1.371362402761344E+08,
2461540.500000000, A.D. 2027-May-15 00:00:00.0000, 3.578716775094218E+08, 7.613482131374662E+07, -1.343322445911624E+08,
2461547.500000000, A.D. 2027-May-22 00:00:00.0000, 3.537887404131725E+08, 8.522014962353709E+07, -1.314181149332225E+08,
2461554.500000000, A.D. 2027-May-29 00:00:00.0000, 3.494093176185557E+08, 9.423400363214913E+07, -1.283938418672577E+08,
2461561.500000000, A.D. 2027-Jun-05 00:00:00.0000, 3.447303580850340E+08, 1.031670139028178E+08, -1.252594908134429E+08,
2461568.500000000, A.D. 2027-Jun-12 00:00:00.0000, 3.397488853729103E+08, 1.120094277203643E+08, -1.220152105415674E+08,
2461575.500000000, A.D. 2027-Jun-19 00:00:00.0000, 3.344620137202826E+08, 1.207510888959060E+08, -1.186612424503643E+08,
2461582.500000000, A.D. 2027-Jun-26 00:00:00.0000, 3.288669659607125E+08, 1.293814167655617E+08, -1.151979307582761E+08,
2461589.500000000, A.D. 2027-Jul-03 00:00:00.0000, 3.229610936426468E+08, 1.378893844472128E+08, -1.116257337040571E+08,
2461596.500000000, A.D. 2027-Jul-10 00:00:00.0000, 3.167418996392868E+08, 1.462634964393242E+08, -1.079452358525184E+08,
2461603.500000000, A.D. 2027-Jul-17 00:00:00.0000, 3.102070635599234E+08, 1.544917656234056E+08, -1.041571616091845E+08,
2461610.500000000, A.D. 2027-Jul-24 00:00:00.0000, 3.033544704179372E+08, 1.625616897395893E+08, -1.002623900653637E+08,
2461617.500000000, A.D. 2027-Jul-31 00:00:00.0000, 2.961822432911332E+08, 1.704602277403574E+08, -9.626197129883619E+07,
2461624.500000000, A.D. 2027-Aug-07 00:00:00.0000, 2.886887801203046E+08, 1.781737773867820E+08, -9.215714412641744E+07,
2461631.500000000, A.D. 2027-Aug-14 00:00:00.0000, 2.808727927136207E+08, 1.856881541054412E+08, -8.794935522905223E+07,
2461638.500000000, A.D. 2027-Aug-21 00:00:00.0000, 2.727333489779373E+08, 1.929885680820011E+08, -8.364028009905633E+07,
2461645.500000000, A.D. 2027-Aug-28 00:00:00.0000, 2.642699222356547E+08, 2.000596012012019E+08, -7.923184614230062E+07,
2461652.500000000, A.D. 2027-Sep-04 00:00:00.0000, 2.554824468849167E+08, 2.068851868272850E+08, -7.472625773084867E+07,
2461659.500000000, A.D. 2027-Sep-11 00:00:00.0000, 2.463713794606182E+08, 2.134485923594078E+08, -7.012602323300037E+07,
2461666.500000000, A.D. 2027-Sep-18 00:00:00.0000, 2.369377656895525E+08, 2.197324046239118E+08, -6.543398417421975E+07,
2461673.500000000, A.D. 2027-Sep-25 00:00:00.0000, 2.271833142230215E+08, 2.257185188695465E+08, -6.065334662380142E+07,
2461680.500000000, A.D. 2027-Oct-02 00:00:00.0000, 2.171104775551054E+08, 2.313881323862820E+08, -5.578771485014149E+07,
2461687.500000000, A.D. 2027-Oct-09 00:00:00.0000, 2.067225405410084E+08, 2.367217439037318E+08, -5.084112724554711E+07,
2461694.500000000, A.D. 2027-Oct-16 00:00:00.0000, 1.960237169039090E+08, 2.416991600604662E+08, -4.581809447697703E+07,
2461701.500000000, A.D. 2027-Oct-23 00:00:00.0000, 1.850192542173135E+08, 2.462995104880548E+08, -4.072363976576305E+07,
2461708.500000000, A.D. 2027-Oct-30 00:00:00.0000, 1.737155478297201E+08, 2.505012738865145E+08, -3.556334107451859E+07,
2461715.500000000, A.D. 2027-Nov-06 00:00:00.0000, 1.621202624735335E+08, 2.542823182014217E+08, -3.034337468733199E+07,
2461722.500000000, A.D. 2027-Nov-13 00:00:00.0000, 1.502424592188201E+08, 2.576199550315254E+08, -2.507055972049129E+07,
2461729.500000000, A.D. 2027-Nov-20 00:00:00.0000, 1.380927300143783E+08, 2.604910085233501E+08, -1.975240340359886E+07,
2461736.500000000, A.D. 2027-Nov-27 00:00:00.0000, 1.256833403952953E+08, 2.628719043395148E+08, -1.439714624385932E+07,
2461743.500000000, A.D. 2027-Dec-04 00:00:00.0000, 1.130283767961638E+08, 2.647387823653410E+08, -9.013805796022177E+06,
2461750.500000000, A.D. 2027-Dec-11 00:00:00.0000, 1.001438957888879E+08, 2.660676350187587E+08, -3.612217803071663E+06,
2461757.500000000, A.D. 2027-Dec-18 00:00:00.0000, 8.704807269890811E+07, 2.668344736377292E+08, 1.796926769842550E+06,
2461764.500000000, A.D. 2027-Dec-25 00:00:00.0000, 7.376134614585614E+07, 2.670155256134370E+08, 7.202050610638335E+06,
2461771.500000000, A.D. 2028-Jan-01 00:00:00.0000, 6.030655408363698E+07, 2.665874646376029E+08, 1.259066695849538E+07,
$$EOE